[{"OBJECT_NAME":"CONTECSAT-1","OBJECT_ID":"2024-043V","EPOCH":"2026-03-09T22:02:35.535840","MEAN_MOTION":15.34615346,"ECCENTRICITY":0.00100896,"INCLINATION":97.5476,"RA_OF_ASC_NODE":207.3735,"ARG_OF_PERICENTER":223.9905,"MEAN_ANOMALY":136.0535,"EPHEMERIS_TYPE":0,"CLASSIFICATION_TYPE":"U","NORAD_CAT_ID":59117,"ELEMENT_SET_NO":999,"REV_AT_EPOCH":11201,"BSTAR":0.0004369392,"MEAN_MOTION_DOT":0.00014607,"MEAN_MOTION_DDOT":0},{"OBJECT_NAME":"STARLINK-34418","OBJECT_ID":"2025-130Z","EPOCH":"2026-03-09T10:49:37.856640","MEAN_MOTION":15.30198272,"ECCENTRICITY":0.00012911,"INCLINATION":53.1597,"RA_OF_ASC_NODE":89.8429,"ARG_OF_PERICENTER":79.0481,"MEAN_ANOMALY":281.0665,"EPHEMERIS_TYPE":0,"CLASSIFICATION_TYPE":"U","NORAD_CAT_ID":64461,"ELEMENT_SET_NO":999,"REV_AT_EPOCH":4066,"BSTAR":0.0010744962,"MEAN_MOTION_DOT":0.00031598,"MEAN_MOTION_DDOT":0}]
